{"fetched_at":"2026-07-22T07:09:47.414Z","source":"https://celestrak.org/NORAD/elements/gp.php?NAME=HULIANWANG&FORMAT=JSON","constellation":"guowang","records":[{"OBJECT_NAME":"HULIANWANG DIGUI-12","OBJECT_ID":"2025-030B","EPOCH":"2026-07-21T10:48:34.353504","CLASSIFICATION_TYPE":"U","MEAN_MOTION":13.29322545,"ECCENTRICITY":0.00008668,"INCLINATION":50.0023,"RA_OF_ASC_NODE":113.0637,"ARG_OF_PERICENTER":291.4204,"MEAN_ANOMALY":68.6576,"EPHEMERIS_TYPE":0,"NORAD_CAT_ID":62972,"ELEMENT_SET_NO":999,"REV_AT_EPOCH":7041,"BSTAR":0.000047691171,"MEAN_MOTION_DOT":-0.00000102,"MEAN_MOTION_DDOT":0},{"OBJECT_NAME":"HULIANWANG DIGUI-13","OBJECT_ID":"2025-030C","EPOCH":"2026-07-21T12:12:37.732320","CLASSIFICATION_TYPE":"U","MEAN_MOTION":13.29324602,"ECCENTRICITY":0.0000695,"INCLINATION":50.0026,"RA_OF_ASC_NODE":112.7223,"ARG_OF_PERICENTER":293.6059,"MEAN_ANOMALY":66.474,"EPHEMERIS_TYPE":0,"NORAD_CAT_ID":62973,"ELEMENT_SET_NO":999,"REV_AT_EPOCH":7042,"BSTAR":0.000040989235,"MEAN_MOTION_DOT":-0.00000105,"MEAN_MOTION_DDOT":0},{"OBJECT_NAME":"HULIANWANG DIGUI-14","OBJECT_ID":"2025-030D","EPOCH":"2026-07-21T13:24:52.303680","CLASSIFICATION_TYPE":"U","MEAN_MOTION":13.29327762,"ECCENTRICITY":0.00006955,"INCLINATION":50.0031,"RA_OF_ASC_NODE":112.3456,"ARG_OF_PERICENTER":297.7556,"MEAN_ANOMALY":62.3246,"EPHEMERIS_TYPE":0,"NORAD_CAT_ID":62974,"ELEMENT_SET_NO":999,"REV_AT_EPOCH":7043,"BSTAR":0.000070976112,"MEAN_MOTION_DOT":-9.1e-7,"MEAN_MOTION_DDOT":0},{"OBJECT_NAME":"HULIANWANG DIGUI-15","OBJECT_ID":"2025-030E","EPOCH":"2026-07-21T13:48:53.734752","CLASSIFICATION_TYPE":"U","MEAN_MOTION":13.29324665,"ECCENTRICITY":0.00007801,"INCLINATION":50.0027,"RA_OF_ASC_NODE":112.4123,"ARG_OF_PERICENTER":297.3388,"MEAN_ANOMALY":62.7405,"EPHEMERIS_TYPE":0,"NORAD_CAT_ID":62975,"ELEMENT_SET_NO":999,"REV_AT_EPOCH":7043,"BSTAR":0.000062429277,"MEAN_MOTION_DOT":-9.5e-7,"MEAN_MOTION_DDOT":0},{"OBJECT_NAME":"HULIANWANG DIGUI-16","OBJECT_ID":"2025-030F","EPOCH":"2026-07-21T13:12:58.084992","CLASSIFICATION_TYPE":"U","MEAN_MOTION":13.29325856,"ECCENTRICITY":0.00006607,"INCLINATION":50.0048,"RA_OF_ASC_NODE":112.3731,"ARG_OF_PERICENTER":295.9841,"MEAN_ANOMALY":64.0964,"EPHEMERIS_TYPE":0,"NORAD_CAT_ID":62976,"ELEMENT_SET_NO":999,"REV_AT_EPOCH":7043,"BSTAR":0.000056505551,"MEAN_MOTION_DOT":-9.8e-7,"MEAN_MOTION_DDOT":0},{"OBJECT_NAME":"HULIANWANG DIGUI-17","OBJECT_ID":"2025-030G","EPOCH":"2026-07-21T11:12:32.246496","CLASSIFICATION_TYPE":"U","MEAN_MOTION":13.29326016,"ECCENTRICITY":0.000077,"INCLINATION":50.0061,"RA_OF_ASC_NODE":112.651,"ARG_OF_PERICENTER":286.9039,"MEAN_ANOMALY":73.1748,"EPHEMERIS_TYPE":0,"NORAD_CAT_ID":62977,"ELEMENT_SET_NO":999,"REV_AT_EPOCH":7042,"BSTAR":0.000068244767,"MEAN_MOTION_DOT":-9.2e-7,"MEAN_MOTION_DDOT":0},{"OBJECT_NAME":"HULIANWANG DIGUI-18","OBJECT_ID":"2025-030H","EPOCH":"2026-07-21T09:12:12.711744","CLASSIFICATION_TYPE":"U","MEAN_MOTION":13.29327915,"ECCENTRICITY":0.0000806,"INCLINATION":50.0065,"RA_OF_ASC_NODE":112.8917,"ARG_OF_PERICENTER":285.4899,"MEAN_ANOMALY":74.5884,"EPHEMERIS_TYPE":0,"NORAD_CAT_ID":62978,"ELEMENT_SET_NO":999,"REV_AT_EPOCH":7041,"BSTAR":0.000047337592,"MEAN_MOTION_DOT":-0.00000102,"MEAN_MOTION_DDOT":0},{"OBJECT_NAME":"HULIANWANG DIGUI-19","OBJECT_ID":"2025-030J","EPOCH":"2026-07-21T13:37:05.094048","CLASSIFICATION_TYPE":"U","MEAN_MOTION":13.29319263,"ECCENTRICITY":0.00007005,"INCLINATION":50.0051,"RA_OF_ASC_NODE":112.468,"ARG_OF_PERICENTER":286.4099,"MEAN_ANOMALY":73.6696,"EPHEMERIS_TYPE":0,"NORAD_CAT_ID":62979,"ELEMENT_SET_NO":999,"REV_AT_EPOCH":7043,"BSTAR":0.000060700962,"MEAN_MOTION_DOT":-9.6e-7,"MEAN_MOTION_DDOT":0},{"OBJECT_NAME":"HULIANWANG DIGUI-20","OBJECT_ID":"2025-086A","EPOCH":"2026-07-21T15:01:14.934720","CLASSIFICATION_TYPE":"U","MEAN_MOTION":13.24411807,"ECCENTRICITY":0.00021567,"INCLINATION":86.5066,"RA_OF_ASC_NODE":301.5347,"ARG_OF_PERICENTER":110.7264,"MEAN_ANOMALY":249.4102,"EPHEMERIS_TYPE":0,"NORAD_CAT_ID":63687,"ELEMENT_SET_NO":999,"REV_AT_EPOCH":5943,"BSTAR":0.000040704075,"MEAN_MOTION_DOT":3.2e-7,"MEAN_MOTION_DDOT":0},{"OBJECT_NAME":"HULIANWANG DIGUI-21","OBJECT_ID":"2025-086B","EPOCH":"2026-07-21T15:12:10.700352","CLASSIFICATION_TYPE":"U","MEAN_MOTION":13.24410511,"ECCENTRICITY":0.00021145,"INCLINATION":86.5094,"RA_OF_ASC_NODE":301.5992,"ARG_OF_PERICENTER":114.0403,"MEAN_ANOMALY":246.0953,"EPHEMERIS_TYPE":0,"NORAD_CAT_ID":63688,"ELEMENT_SET_NO":999,"REV_AT_EPOCH":5942,"BSTAR":0.000033798035,"MEAN_MOTION_DOT":2.9e-7,"MEAN_MOTION_DDOT":0},{"OBJECT_NAME":"HULIANWANG DIGUI-22","OBJECT_ID":"2025-086C","EPOCH":"2026-07-21T15:23:00.365280","CLASSIFICATION_TYPE":"U","MEAN_MOTION":13.24410865,"ECCENTRICITY":0.00021949,"INCLINATION":86.5059,"RA_OF_ASC_NODE":301.4531,"ARG_OF_PERICENTER":110.006,"MEAN_ANOMALY":250.1311,"EPHEMERIS_TYPE":0,"NORAD_CAT_ID":63689,"ELEMENT_SET_NO":999,"REV_AT_EPOCH":5942,"BSTAR":0.000025760566,"MEAN_MOTION_DOT":2.6e-7,"MEAN_MOTION_DDOT":0},{"OBJECT_NAME":"HULIANWANG DIGUI-23","OBJECT_ID":"2025-086D","EPOCH":"2026-07-21T13:55:56.477856","CLASSIFICATION_TYPE":"U","MEAN_MOTION":13.24410604,"ECCENTRICITY":0.00021687,"INCLINATION":86.51,"RA_OF_ASC_NODE":301.6656,"ARG_OF_PERICENTER":110.6708,"MEAN_ANOMALY":249.4658,"EPHEMERIS_TYPE":0,"NORAD_CAT_ID":63690,"ELEMENT_SET_NO":999,"REV_AT_EPOCH":5941,"BSTAR":0.000030001312,"MEAN_MOTION_DOT":2.8e-7,"MEAN_MOTION_DDOT":0},{"OBJECT_NAME":"HULIANWANG DIGUI-24","OBJECT_ID":"2025-086E","EPOCH":"2026-07-21T14:06:52.065504","CLASSIFICATION_TYPE":"U","MEAN_MOTION":13.24411282,"ECCENTRICITY":0.00021499,"INCLINATION":86.5107,"RA_OF_ASC_NODE":301.6988,"ARG_OF_PERICENTER":113.1809,"MEAN_ANOMALY":246.9552,"EPHEMERIS_TYPE":0,"NORAD_CAT_ID":63691,"ELEMENT_SET_NO":999,"REV_AT_EPOCH":5941,"BSTAR":0.00005994605,"MEAN_MOTION_DOT":4e-7,"MEAN_MOTION_DDOT":0},{"OBJECT_NAME":"HULIANWANG DIGUI-25","OBJECT_ID":"2025-086F","EPOCH":"2026-07-21T14:17:45.039552","CLASSIFICATION_TYPE":"U","MEAN_MOTION":13.24410574,"ECCENTRICITY":0.00020878,"INCLINATION":86.5045,"RA_OF_ASC_NODE":301.4364,"ARG_OF_PERICENTER":111.2345,"MEAN_ANOMALY":248.9012,"EPHEMERIS_TYPE":0,"NORAD_CAT_ID":63692,"ELEMENT_SET_NO":999,"REV_AT_EPOCH":5941,"BSTAR":0.0000616654,"MEAN_MOTION_DOT":4.1e-7,"MEAN_MOTION_DDOT":0},{"OBJECT_NAME":"HULIANWANG DIGUI-26","OBJECT_ID":"2025-086G","EPOCH":"2026-07-21T15:33:51.755616","CLASSIFICATION_TYPE":"U","MEAN_MOTION":13.24409645,"ECCENTRICITY":0.00023353,"INCLINATION":86.5095,"RA_OF_ASC_NODE":301.6099,"ARG_OF_PERICENTER":115.1795,"MEAN_ANOMALY":244.9581,"EPHEMERIS_TYPE":0,"NORAD_CAT_ID":63693,"ELEMENT_SET_NO":999,"REV_AT_EPOCH":5942,"BSTAR":0.000004280783,"MEAN_MOTION_DOT":1.6e-7,"MEAN_MOTION_DDOT":0},{"OBJECT_NAME":"HULIANWANG DIGUI-27","OBJECT_ID":"2025-086H","EPOCH":"2026-07-21T14:28:34.759776","CLASSIFICATION_TYPE":"U","MEAN_MOTION":13.24412443,"ECCENTRICITY":0.00021553,"INCLINATION":86.5055,"RA_OF_ASC_NODE":301.481,"ARG_OF_PERICENTER":112.1873,"MEAN_ANOMALY":247.949,"EPHEMERIS_TYPE":0,"NORAD_CAT_ID":63694,"ELEMENT_SET_NO":999,"REV_AT_EPOCH":5941,"BSTAR":0.00010518579,"MEAN_MOTION_DOT":6e-7,"MEAN_MOTION_DDOT":0}]}
