{"epoch":1784710044,"count":18256,"objects":[{"id":"62972","name":"HULIANWANG DIGUI-12","type":"PAYLOAD","l1":"1 62972U 25030B   26202.45039761 -.00000102  00000-0  47691-4 0  9998","l2":"2 62972  50.0023 113.0637 0000867 291.4204  68.6576 13.29322545 70418"},{"id":"62973","name":"HULIANWANG DIGUI-13","type":"PAYLOAD","l1":"1 62973U 25030C   26202.50877005 -.00000105  00000-0  40989-4 0  9992","l2":"2 62973  50.0026 112.7223 0000695 293.6059  66.4740 13.29324602 70426"},{"id":"62974","name":"HULIANWANG DIGUI-14","type":"PAYLOAD","l1":"1 62974U 25030D   26202.55893870 -.00000091  00000-0  70976-4 0  9999","l2":"2 62974  50.0031 112.3456 0000696 297.7556  62.3246 13.29327762 70432"},{"id":"62975","name":"HULIANWANG DIGUI-15","type":"PAYLOAD","l1":"1 62975U 25030E   26202.57562193 -.00000095  00000-0  62429-4 0  9991","l2":"2 62975  50.0027 112.4123 0000780 297.3388  62.7405 13.29324665 70433"},{"id":"62976","name":"HULIANWANG DIGUI-16","type":"PAYLOAD","l1":"1 62976U 25030F   26202.55067228 -.00000098  00000-0  56506-4 0  9991","l2":"2 62976  50.0048 112.3731 0000661 295.9841  64.0964 13.29325856 70435"},{"id":"62977","name":"HULIANWANG DIGUI-17","type":"PAYLOAD","l1":"1 62977U 25030G   26202.46703989 -.00000092  00000-0  68245-4 0  9990","l2":"2 62977  50.0061 112.6510 0000770 286.9039  73.1748 13.29326016 70428"},{"id":"62978","name":"HULIANWANG DIGUI-18","type":"PAYLOAD","l1":"1 62978U 25030H   26202.38348046 -.00000102  00000-0  47338-4 0  9993","l2":"2 62978  50.0065 112.8917 0000806 285.4899  74.5884 13.29327915 70418"},{"id":"62979","name":"HULIANWANG DIGUI-19","type":"PAYLOAD","l1":"1 62979U 25030J   26202.56742007 -.00000096  00000-0  60701-4 0  9990","l2":"2 62979  50.0051 112.4680 0000700 286.4099  73.6696 13.29319263 70433"},{"id":"63687","name":"HULIANWANG DIGUI-20","type":"PAYLOAD","l1":"1 63687U 25086A   26202.62586730  .00000032  00000-0  40704-4 0  9994","l2":"2 63687  86.5066 301.5347 0002157 110.7264 249.4102 13.24411807 59436"},{"id":"63688","name":"HULIANWANG DIGUI-21","type":"PAYLOAD","l1":"1 63688U 25086B   26202.63345718  .00000029  00000-0  33798-4 0  9996","l2":"2 63688  86.5094 301.5992 0002115 114.0403 246.0953 13.24410511 59427"},{"id":"63689","name":"HULIANWANG DIGUI-22","type":"PAYLOAD","l1":"1 63689U 25086C   26202.64097645  .00000026  00000-0  25761-4 0  9999","l2":"2 63689  86.5059 301.4531 0002195 110.0060 250.1311 13.24410865 59426"},{"id":"63690","name":"HULIANWANG DIGUI-23","type":"PAYLOAD","l1":"1 63690U 25086D   26202.58051479  .00000028  00000-0  30001-4 0  9994","l2":"2 63690  86.5100 301.6656 0002169 110.6708 249.4658 13.24410604 59416"},{"id":"63691","name":"HULIANWANG DIGUI-24","type":"PAYLOAD","l1":"1 63691U 25086E   26202.58810261  .00000040  00000-0  59946-4 0  9990","l2":"2 63691  86.5107 301.6988 0002150 113.1809 246.9552 13.24411282 59410"},{"id":"63692","name":"HULIANWANG DIGUI-25","type":"PAYLOAD","l1":"1 63692U 25086F   26202.59566018  .00000041  00000-0  61665-4 0  9992","l2":"2 63692  86.5045 301.4364 0002088 111.2345 248.9012 13.24410574 59418"},{"id":"63693","name":"HULIANWANG DIGUI-26","type":"PAYLOAD","l1":"1 63693U 25086G   26202.64851569  .00000016  00000-0  42808-5 0  9998","l2":"2 63693  86.5095 301.6099 0002335 115.1795 244.9581 13.24409645 59423"},{"id":"63694","name":"HULIANWANG DIGUI-27","type":"PAYLOAD","l1":"1 63694U 25086H   26202.60318009  .00000060  00000-0  10519-3 0  9993","l2":"2 63694  86.5055 301.4810 0002155 112.1873 247.9490 13.24412443 59414"}]}